start=new Date('2021-12-31T00:00:00.000Z').valueOf();
sats=[{"ARG_OF_PERICENTER":"158.5004","GP_ID":"192794938","MEAN_MOTION_DDOT":"0.0000000000000","EPOCH":"2021-12-30T16:06:20.054880","NORAD_CAT_ID":"47645","COUNTRY_CODE":"US","CENTER_NAME":"EARTH","PERIOD":"95.593","MEAN_MOTION":"15.06390146","TLE_LINE1":"1 47645U 21012AB  21364.67106545 -.00000400  00000-0 -78751-5 0  9991","TIME_SYSTEM":"UTC","DECAY_DATE":null,"LAUNCH_DATE":"2021-02-16","APOAPSIS":"550.372","MEAN_ANOMALY":"201.6176","FILE":"3255240","REV_AT_EPOCH":"4977","RCS_SIZE":"LARGE","BSTAR":"-0.00000787510000","PERIAPSIS":"544.116","MEAN_MOTION_DOT":"-0.00000400","INCLINATION":"53.0544","SEMIMAJOR_AXIS":"6925.379","CLASSIFICATION_TYPE":"U","ECCENTRICITY":"0.00045170","MEAN_ELEMENT_THEORY":"SGP4","EPHEMERIS_TYPE":"0","SITE":"AFETR","OBJECT_TYPE":"PAYLOAD","TLE_LINE2":"2 47645  53.0544  70.1323 0004517 158.5004 201.6176 15.06390146 49770","OBJECT_ID":"2021-012AB","OBJECT_NAME":"STARLINK-2027","ELEMENT_SET_NO":"999","REF_FRAME":"TEME","RA_OF_ASC_NODE":"70.1323"},{"TLE_LINE1":"1 47646U 21012AC  21364.59136849  .00001659  00000-0  13025-3 0  9999","TIME_SYSTEM":"UTC","DECAY_DATE":null,"CENTER_NAME":"EARTH","COUNTRY_CODE":"US","PERIOD":"95.593","MEAN_MOTION":"15.06393974","ARG_OF_PERICENTER":"71.1765","MEAN_MOTION_DDOT":"0.0000000000000","GP_ID":"192794689","EPOCH":"2021-12-30T14:11:34.237536","NORAD_CAT_ID":"47646","REV_AT_EPOCH":"5025","RCS_SIZE":"LARGE","BSTAR":"0.00013025000000","MEAN_MOTION_DOT":"0.00001659","PERIAPSIS":"546.087","LAUNCH_DATE":"2021-02-16","APOAPSIS":"548.377","MEAN_ANOMALY":"288.9403","FILE":"3255240","ECCENTRICITY":"0.00016540","MEAN_ELEMENT_THEORY":"SGP4","EPHEMERIS_TYPE":"0","INCLINATION":"53.0564","SEMIMAJOR_AXIS":"6925.367","CLASSIFICATION_TYPE":"U","REF_FRAME":"TEME","ELEMENT_SET_NO":"999","RA_OF_ASC_NODE":"35.4975","OBJECT_ID":"2021-012AC","OBJECT_NAME":"STARLINK-2028","SITE":"AFETR","OBJECT_TYPE":"PAYLOAD","TLE_LINE2":"2 47646  53.0564  35.4975 0001654  71.1765 288.9403 15.06393974 50251"},{"ARG_OF_PERICENTER":"90.4119","MEAN_MOTION_DDOT":"0.0000000000000","GP_ID":"192793437","EPOCH":"2021-12-30T18:00:28.880064","NORAD_CAT_ID":"47647","COUNTRY_CODE":"US","PERIOD":"95.593","CENTER_NAME":"EARTH","MEAN_MOTION":"15.06390571","TIME_SYSTEM":"UTC","TLE_LINE1":"1 47647U 21012AD  21364.75033426  .00000083  00000-0  24451-4 0  9991","DECAY_DATE":null,"LAUNCH_DATE":"2021-02-16","APOAPSIS":"548.018","MEAN_ANOMALY":"269.6998","FILE":"3255240","REV_AT_EPOCH":"4939","RCS_SIZE":"LARGE","BSTAR":"0.00002445100000","PERIAPSIS":"546.467","MEAN_MOTION_DOT":"0.00000083","INCLINATION":"53.0561","SEMIMAJOR_AXIS":"6925.377","CLASSIFICATION_TYPE":"U","ECCENTRICITY":"0.00011200","MEAN_ELEMENT_THEORY":"SGP4","EPHEMERIS_TYPE":"0","SITE":"AFETR","TLE_LINE2":"2 47647  53.0561  99.7877 0001120  90.4119 269.6998 15.06390571 49396","OBJECT_TYPE":"PAYLOAD","OBJECT_ID":"2021-012AD","OBJECT_NAME":"STARLINK-2030","REF_FRAME":"TEME","ELEMENT_SET_NO":"999","RA_OF_ASC_NODE":"99.7877"},{"ECCENTRICITY":"0.00012920","MEAN_ELEMENT_THEORY":"SGP4","EPHEMERIS_TYPE":"0","INCLINATION":"53.0564","SEMIMAJOR_AXIS":"6925.375","CLASSIFICATION_TYPE":"U","ELEMENT_SET_NO":"999","REF_FRAME":"TEME","RA_OF_ASC_NODE":"80.1224","OBJECT_ID":"2021-012AE","OBJECT_NAME":"STARLINK-2031","SITE":"AFETR","OBJECT_TYPE":"PAYLOAD","TLE_LINE2":"2 47648  53.0564  80.1224 0001292  77.5362 282.5771 15.06391507 49669","TLE_LINE1":"1 47648U 21012AE  21364.67477653 -.00000082  00000-0  13388-4 0  9994","TIME_SYSTEM":"UTC","DECAY_DATE":null,"COUNTRY_CODE":"US","CENTER_NAME":"EARTH","PERIOD":"95.593","MEAN_MOTION":"15.06391507","ARG_OF_PERICENTER":"77.5362","MEAN_MOTION_DDOT":"0.0000000000000","GP_ID":"192794187","EPOCH":"2021-12-30T16:11:40.692192","NORAD_CAT_ID":"47648","REV_AT_EPOCH":"4966","RCS_SIZE":"MEDIUM","BSTAR":"0.00001338800000","MEAN_MOTION_DOT":"-0.00000082","PERIAPSIS":"546.345","LAUNCH_DATE":"2021-02-16","APOAPSIS":"548.134","MEAN_ANOMALY":"282.5771","FILE":"3255240"},{"INCLINATION":"53.0543","SEMIMAJOR_AXIS":"6925.414","CLASSIFICATION_TYPE":"U","ECCENTRICITY":"0.00012130","MEAN_ELEMENT_THEORY":"SGP4","EPHEMERIS_TYPE":"0","SITE":"AFETR","TLE_LINE2":"2 47649  53.0543  80.4079 0001213  89.3590 270.7538 15.06378749 49657","OBJECT_TYPE":"PAYLOAD","OBJECT_ID":"2021-012AF","OBJECT_NAME":"STARLINK-2032","REF_FRAME":"TEME","ELEMENT_SET_NO":"999","RA_OF_ASC_NODE":"80.4079","ARG_OF_PERICENTER":"89.3590","GP_ID":"192794439","MEAN_MOTION_DDOT":"0.0000000000000","EPOCH":"2021-12-30T14:41:28.635072","NORAD_CAT_ID":"47649","COUNTRY_CODE":"US","CENTER_NAME":"EARTH","PERIOD":"95.593","MEAN_MOTION":"15.06378749","TLE_LINE1":"1 47649U 21012AF  21364.61213698  .00002040  00000-0  15592-3 0  9999","TIME_SYSTEM":"UTC","DECAY_DATE":null,"LAUNCH_DATE":"2021-02-16","APOAPSIS":"548.119","MEAN_ANOMALY":"270.7538","FILE":"3255240","REV_AT_EPOCH":"4965","RCS_SIZE":"LARGE","BSTAR":"0.00015592000000","MEAN_MOTION_DOT":"0.00002040","PERIAPSIS":"546.439"},{"TLE_LINE2":"2 47650  53.0544  79.8795 0001200  73.9327 286.1794 15.06397572 49650","OBJECT_TYPE":"PAYLOAD","SITE":"AFETR","RA_OF_ASC_NODE":"79.8795","ELEMENT_SET_NO":"999","REF_FRAME":"TEME","OBJECT_NAME":"STARLINK-2033","OBJECT_ID":"2021-012AG","CLASSIFICATION_TYPE":"U","SEMIMAJOR_AXIS":"6925.356","INCLINATION":"53.0544","EPHEMERIS_TYPE":"0","MEAN_ELEMENT_THEORY":"SGP4","ECCENTRICITY":"0.00012000","PERIAPSIS":"546.390","MEAN_MOTION_DOT":"0.00000597","BSTAR":"0.00005897200000","RCS_SIZE":"LARGE","REV_AT_EPOCH":"4965","FILE":"3255240","MEAN_ANOMALY":"286.1794","APOAPSIS":"548.052","LAUNCH_DATE":"2021-02-16","NORAD_CAT_ID":"47650","EPOCH":"2021-12-30T17:31:17.124384","GP_ID":"192795189","MEAN_MOTION_DDOT":"0.0000000000000","ARG_OF_PERICENTER":"73.9327","DECAY_DATE":null,"TIME_SYSTEM":"UTC","TLE_LINE1":"1 47650U 21012AG  21364.73005931  .00000597  00000-0  58972-4 0  9998","MEAN_MOTION":"15.06397572","PERIOD":"95.592","COUNTRY_CODE":"US","CENTER_NAME":"EARTH"},{"MEAN_ELEMENT_THEORY":"SGP4","ECCENTRICITY":"0.00011370","EPHEMERIS_TYPE":"0","SEMIMAJOR_AXIS":"6925.373","INCLINATION":"53.0552","CLASSIFICATION_TYPE":"U","ELEMENT_SET_NO":"999","REF_FRAME":"TEME","RA_OF_ASC_NODE":"99.7279","OBJECT_ID":"2021-012AH","OBJECT_NAME":"STARLINK-2035","TLE_LINE2":"2 47651  53.0552  99.7279 0001137 102.3521 257.7596 15.06392126 49395","OBJECT_TYPE":"PAYLOAD","SITE":"AFETR","TLE_LINE1":"1 47651U 21012AH  21364.76412959 -.00000380  00000-0 -66096-5 0  9993","TIME_SYSTEM":"UTC","DECAY_DATE":null,"MEAN_MOTION":"15.06392126","COUNTRY_CODE":"US","PERIOD":"95.593","CENTER_NAME":"EARTH","MEAN_MOTION_DDOT":"0.0000000000000","GP_ID":"192793937","ARG_OF_PERICENTER":"102.3521","NORAD_CAT_ID":"47651","EPOCH":"2021-12-30T18:20:20.796576","RCS_SIZE":"LARGE","REV_AT_EPOCH":"4939","MEAN_MOTION_DOT":"-0.00000380","PERIAPSIS":"546.450","BSTAR":"-0.00000660960000","APOAPSIS":"548.025","LAUNCH_DATE":"2021-02-16","FILE":"3255240","MEAN_ANOMALY":"257.7596"},{"OBJECT_ID":"2021-012AJ","OBJECT_NAME":"STARLINK-2036","REF_FRAME":"TEME","ELEMENT_SET_NO":"999","RA_OF_ASC_NODE":"99.6031","SITE":"AFETR","TLE_LINE2":"2 47652  53.0552  99.6031 0001692  82.3493 277.7688 15.06387503 49399","OBJECT_TYPE":"PAYLOAD","ECCENTRICITY":"0.00016920","MEAN_ELEMENT_THEORY":"SGP4","EPHEMERIS_TYPE":"0","INCLINATION":"53.0552","SEMIMAJOR_AXIS":"6925.387","CLASSIFICATION_TYPE":"U","LAUNCH_DATE":"2021-02-16","APOAPSIS":"548.424","MEAN_ANOMALY":"277.7688","FILE":"3255240","REV_AT_EPOCH":"4939","RCS_SIZE":"LARGE","BSTAR":"-0.00006924600000","MEAN_MOTION_DOT":"-0.00001312","PERIAPSIS":"546.080","COUNTRY_CODE":"US","PERIOD":"95.593","CENTER_NAME":"EARTH","MEAN_MOTION":"15.06387503","TIME_SYSTEM":"UTC","TLE_LINE1":"1 47652U 21012AJ  21364.79087894 -.00001312  00000-0 -69246-4 0  9998","DECAY_DATE":null,"ARG_OF_PERICENTER":"82.3493","GP_ID":"192793688","MEAN_MOTION_DDOT":"0.0000000000000","EPOCH":"2021-12-30T18:58:51.940416","NORAD_CAT_ID":"47652"},{"REV_AT_EPOCH":"4963","RCS_SIZE":"LARGE","BSTAR":"-0.00004971400000","MEAN_MOTION_DOT":"-0.00001022","PERIAPSIS":"546.259","LAUNCH_DATE":"2021-02-16","APOAPSIS":"548.221","MEAN_ANOMALY":"287.8430","FILE":"3255240","ARG_OF_PERICENTER":"72.2714","GP_ID":"192794939","MEAN_MOTION_DDOT":"0.0000000000000","EPOCH":"2021-12-30T14:04:16.961088","NORAD_CAT_ID":"47653","TLE_LINE1":"1 47653U 21012AK  21364.58630742 -.00001022  00000-0 -49714-4 0  9998","TIME_SYSTEM":"UTC","DECAY_DATE":null,"COUNTRY_CODE":"US","CENTER_NAME":"EARTH","PERIOD":"95.593","MEAN_MOTION":"15.06391405","SITE":"AFETR","OBJECT_TYPE":"PAYLOAD","TLE_LINE2":"2 47653  53.0544  80.5121 0001416  72.2714 287.8430 15.06391405 49638","ELEMENT_SET_NO":"999","REF_FRAME":"TEME","RA_OF_ASC_NODE":"80.5121","OBJECT_ID":"2021-012AK","OBJECT_NAME":"STARLINK-2037","INCLINATION":"53.0544","SEMIMAJOR_AXIS":"6925.375","CLASSIFICATION_TYPE":"U","ECCENTRICITY":"0.00014160","MEAN_ELEMENT_THEORY":"SGP4","EPHEMERIS_TYPE":"0"},{"SITE":"AFETR","OBJECT_TYPE":"PAYLOAD","TLE_LINE2":"2 47654  53.0541  99.8732 0001405  90.6641 269.4509 15.06388777 49381","OBJECT_ID":"2021-012AL","OBJECT_NAME":"STARLINK-2038","REF_FRAME":"TEME","ELEMENT_SET_NO":"999","RA_OF_ASC_NODE":"99.8732","INCLINATION":"53.0541","SEMIMAJOR_AXIS":"6925.383","CLASSIFICATION_TYPE":"U","ECCENTRICITY":"0.00014050","MEAN_ELEMENT_THEORY":"SGP4","EPHEMERIS_TYPE":"0","LAUNCH_DATE":"2021-02-16","APOAPSIS":"548.221","MEAN_ANOMALY":"269.4509","FILE":"3255240","REV_AT_EPOCH":"4938","RCS_SIZE":"LARGE","BSTAR":"0.00015163000000","MEAN_MOTION_DOT":"0.00001977","PERIAPSIS":"546.275","ARG_OF_PERICENTER":"90.6641","MEAN_MOTION_DDOT":"0.0000000000000","GP_ID":"192794690","EPOCH":"2021-12-30T17:28:38.068032","NORAD_CAT_ID":"47654","PERIOD":"95.593","COUNTRY_CODE":"US","CENTER_NAME":"EARTH","MEAN_MOTION":"15.06388777","TLE_LINE1":"1 47654U 21012AL  21364.72821838  .00001977  00000-0  15163-3 0  9990","TIME_SYSTEM":"UTC","DECAY_DATE":null}];
